#dP2020  5 24  0  0  0.00000000      96 __u+U ITR00 FIT  IAC
## 2107      0.00000000   900.00000000 58993 0.0000000000000
+  117   C06C07C08C09C10C11C12C13C14C16C19C20C21C22C23C24C25
+        C26C27C28C29C30C32C33C34C35C36C37C38C39C40C43C44C45
+        C46E01E02E03E04E05E07E08E09E11E12E13E14E15E18E19E21
+        E24E25E26E27E30E31E33E36G01G02G03G04G05G06G07G08G09
+        G10G11G12G13G14G15G16G17G18G19G20G21G22G23G24G25G26
+        G27G28G29G30G31G32J01J02J03R01R02R03R04R05R07R08R09
+        R11R12R13R14R15R16R17R18R19R20R21R22R23R24R26  0  0
++         8  8  8  9  8  6  6  8  8  8  7  7  7  8  8  7  8
++         7  6  6  7  7  5  7  7  7  7  8  0  5 13  8 10  8
++         8  6  7  7  6  6  5  6  7  5  7  6  6  5  6  7  6
++         5  7  6  5  7  6  6  6  6  5  5  6  7  6  5  5  5
++         6  5  5  5  6  5  6  6  6  6  5  5  4  7  6  5  4
++         6  7  5  5  5  6  9 12 11  6  7  6  5  5  7  7  6
++         7  8  8  8  7  7  6  6  6  7  7  8  6  5  7  0  0
%c M  cc GPS ccc cccc cccc cccc cccc ccccc ccccc ccccc ccccc
%c cc cc ccc ccc cccc cccc cccc cccc ccccc ccccc ccccc ccccc
%f  0.0000000  0.000000000  0.00000000000  0.000000000000000
%f  0.0000000  0.000000000  0.00000000000  0.000000000000000
%i    0    0    0    0      0      0      0      0         0
%i    0    0    0    0      0      0      0      0         0
/* INFORMATION & ANALYSIS CENTER (IAC)      ULTRA-RAPID DATA
/* S/V CLOCKS ARE ALIGNED TO GNSS TIME                      
/* G:C1WC2W R:C1PC2P E:C1XC5X C:C2IC6I J:C1CC2S             
/* PCV:IGS14_2101 OL/AL:FES2004  NONE     YN ORB:CoN CLK:CoN
*  2020 05 24 23 15  0.00000000
PC06 -22785.931360  34387.362975   7938.700866    738.228731
PC07  -8939.119137  32161.138717  26233.257051    -59.474664
PC08 -17683.059950  17401.333411 -34080.306535   -271.378590
PC09  -9982.398561  33970.209956  22885.913377    563.275495
PC10   3680.311437  39315.465460  15555.301596   -280.817850
PC11    868.520854 -17584.028450  21692.760136   -385.487950
PC12  18161.300127 -19226.867170   8896.300327    381.702832
PC13  -1085.589089  22966.227791 -35250.652859    453.762906
PC14  -3938.811557 -27480.770402  -2454.143261    446.813767
PC16 -20611.278370  35152.765830  10514.974536   -634.957236
PC19   9801.652862  23606.300725  11256.329920    422.758260
PC20  -1779.383007  27264.041607  -5745.444932   -867.864492
PC21  12795.284972 -14698.030258  19989.516507   -441.699499
PC22  15923.673163   6218.216252  22074.651178   -799.254101
PC23 -26017.239089  -8372.299009   5622.992194   -867.928585
PC24   1138.491943 -16969.186318 -22132.715406   -811.709315
PC25 -18530.739435 -17467.261626 -11434.112877   -628.397787
PC26  18371.552669  -6976.747792 -19806.698895    692.838340
PC27 -23376.106190  15219.906223    140.717945    335.739714
PC28 -22556.394247   1257.175007  16385.123030   -226.126337
PC29   9059.178656  13054.587314 -22948.455945    233.053569
PC30 -10039.020483  20630.353557 -15873.900099    321.855440
PC32 -12652.021937  14870.026638 -19922.846682 999999.999999
PC33  -9868.452867 -23583.475353 -11148.063004   -828.654514
PC34   9689.598886 -20593.632620  16157.551276   -748.857681
PC35  22470.291892  -1852.988177 -16470.913805   -829.121845
PC36  17919.772191  17960.844982  11655.835945   -834.418802
PC37 -19057.612704   6047.032638  19489.530745   -844.502936
PC38      0.000000      0.000000      0.000000 999999.999999
PC39 -16104.313318  36664.297567  13002.958927 999999.999999
PC40  -1162.351098  37157.953337  20062.044481     46.344533
PC43  -8739.546750 -13406.141653  22855.152424   -208.362357
PC44  22979.466376 -15864.842256   -348.647988   -238.458409
PC45  26028.590644   8330.795339  -5608.911372    139.578451
PC46   -541.638805  17025.657354  22108.183098    818.803157
PE01 -22589.691185 -12495.577187  14478.111383   -863.451836
PE02  22587.308460  12408.009685 -14557.433140    135.651615
PE03  17067.626881   3072.248396  23993.843944   -302.330401
PE04 -18271.686027  17598.150279 -15242.383401   -532.092404
PE05   5836.252520  22153.037540  18755.973232   -377.425054
PE07   8734.316370 -28155.562896  -2585.878147   -386.365218
PE08  18032.416220 -17906.463054  15174.533309   6173.548461
PE09  -8486.575461  28238.212002   2720.817778   6050.556704
PE11  -9533.865211  16682.245209 -22517.095318   3034.807371
PE12 -26568.174025  10074.240784  -8253.198735   5789.015099
PE13   9785.921745 -16631.030829  22452.382801    401.088748
PE14 -19775.242735  17455.992624   4960.310803  -1025.550339
PE15  26446.853598 -10272.793871   8461.686381    865.905363
PE18  24204.868334  -7244.347087 -16593.843366  -1125.187301
PE19 -16156.573152  -5318.091674 -24213.073643  -2604.914979
PE21 -16674.958398 -24188.624637  -3599.681467   -600.767154
PE24    511.227152  21860.432386  19929.614161   5438.378922
PE25  16600.305789  24225.730309   3721.952702   -511.104363
PE26 -13009.349516 -13299.352447  23023.943357   3151.410230
PE27   -867.427270 -21957.251126 -19832.606462    212.994391
PE30  15673.325717  -6473.535503 -24271.419618   3880.817266
PE31 -15378.150563   6846.937109  24351.010418   -472.650057
PE33 -27579.303055  -2134.394718  10522.030086   -466.908337
PE36  12644.549929  13225.549892 -23266.728983    555.862926
PG01  13761.264163  13929.935759 -18324.512193   -384.750081
PG02   9989.189322 -14173.987585  20745.331587   -461.271324
PG03  12518.120166  23301.138521   2905.759382   -186.526733
PG04   7256.098751  14595.661682  20977.396180    -93.692073
PG05   1347.140227 -21720.830813  14951.789029    -13.313412
PG06  20843.380441  -7670.936167  14651.485245   -277.379405
PG07  25855.343162   6026.853639   4157.551321   -288.735990
PG08  -2556.233822  21570.874010 -15092.776546    -35.158534
PG09  15822.423289   3496.434039  20999.926246   -223.627679
PG10 -15423.914699   1908.702354 -21476.630005   -351.032664
PG11   3353.936233  16271.966600 -21235.561733   -267.973034
PG12 -10355.451963 -24439.832703   2106.470004    114.068352
PG13  11171.984950 -21897.133680 -10052.939496     12.674088
PG14 -18817.771830  18215.209329  -3410.327077    -10.701451
PG15   -783.425411 -21666.802621 -15401.031340   -228.946502
PG16  -2007.308346  22394.072568  13560.737706   -162.170617
PG17  20164.206423 -12040.730603 -11938.830971    270.024091
PG18 -25500.866985  -6234.417068   4102.720526    200.008155
PG19  19985.876841 -16675.000675  -5527.099659   -154.355283
PG20 -19394.972930  -9040.898735 -15947.596181    527.634129
PG21 -26345.885140  -1907.831418   1207.439113      2.904166
PG22   8271.034177  24503.580454  -6137.953580 999999.999999
PG23  17796.982158     85.091323  20228.593416   -111.484227
PG24 -12402.242132 -14443.812853 -18857.849995    -13.437640
PG25 -16042.335301 -18473.386127  10414.160376      6.834016
PG26  -9636.094506  13841.786339  20432.412680    212.661525
PG27 -11477.406078  22949.923877  -6270.263968   -302.567831
PG28  14413.461523  -2734.883845 -21553.629553    714.577542
PG29 -12756.487702  -7499.646853  22012.060076   -112.084798
PG30  25705.751833  -1482.298068  -6918.181570   -227.248544
PG31 -20191.402726   8236.634368  15426.666276    -44.609347
PG32 -19673.967461  13319.721555 -11637.197573    287.060981
PJ01 -20625.175623  29576.782079 -17253.648225   -298.582814
PJ02 -25297.969630  21530.580880  30847.054849     -0.202783
PJ03 -34693.264496  23913.434799   3283.338057     -3.329023
PR01  11246.118290  -6609.294959  21924.705549     62.025677
PR02   6190.064270 -23688.206064   7300.068221    428.287215
PR03  -2295.756857 -23307.912292 -10115.229102     15.595190
PR04  -9221.195889  -9625.324918 -21715.861941     50.304493
PR05 -10977.852077   9408.920346 -20993.115364     51.059212
PR07   2636.490091  22959.817746  10795.806992    -36.879447
PR08   9367.137676   9609.645096  21749.158378    -52.426605
PR09   1243.069819  13846.160746  21416.241853    134.364194
PR11  21592.939634  12644.138162  -5076.023298    -24.730160
PR12  16942.561286   1219.342875 -18997.273338    133.483255
PR13   2364.027384 -11524.788939 -22650.198659    -39.114752
PR14 -13507.279534 -17456.317759 -12762.662267     51.556654
PR15 -21410.928179 -13190.762096   4286.392685    106.519017
PR16 -16798.105251   -417.497045  19214.908085     -3.725731
PR17  -1647.144286 -10750.835324  23075.237739    327.508565
PR18 -17265.804263  -1731.915364  18680.655732     36.499269
PR19 -23953.997573   7417.593946   4667.184676    -94.855323
PR20 -16185.770353  13413.751205 -14409.518564   -412.530690
PR21   2523.419366  10320.131942 -23194.485652   -126.727033
PR22  19103.339506    148.329627 -16970.270416     -2.806848
PR23  22969.675402 -10870.040874   2241.922499    307.673921
PR24  15427.621906 -13857.772637  14860.748881     -0.139015
PR26 -19245.086498  13226.666876 -10283.432916 999999.999999
EOF
